{"type": "FeatureCollection", "features": [{"type": "Feature", "properties": {"featurecla": "Admin-0 country", "scalerank": 1, "LABELRANK": 2, "SOVEREIGNT": "Kenya", "SOV_A3": "KEN", "ADM0_DIF": 0, "LEVEL": 2, "TYPE": "Sovereign country", "TLC": "1", "ADMIN": "Kenya", "ADM0_A3": "KEN", "GEOU_DIF": 0, "GEOUNIT": "Kenya", "GU_A3": "KEN", "SU_DIF": 0, "SUBUNIT": "Kenya", "SU_A3": "KEN", "BRK_DIFF": 0, "NAME": "Kenya", "NAME_LONG": "Kenya", "BRK_A3": "KEN", "BRK_NAME": "Kenya", "BRK_GROUP": null, "ABBREV": "Ken.", "POSTAL": "KE", "FORMAL_EN": "Republic of Kenya", "FORMAL_FR": null, "NAME_CIAWF": "Kenya", "NOTE_ADM0": null, "NOTE_BRK": null, "NAME_SORT": "Kenya", "NAME_ALT": null, "MAPCOLOR7": 5, "MAPCOLOR8": 2, "MAPCOLOR9": 7, "MAPCOLOR13": 3, "POP_EST": 52573973, "POP_RANK": 16, "POP_YEAR": 2019, "GDP_MD": 95503, "GDP_YEAR": 2019, "ECONOMY": "5. Emerging region: G20", "INCOME_GRP": "5. Low income", "FIPS_10": "KE", "ISO_A2": "KE", "ISO_A2_EH": "KE", "ISO_A3": "KEN", "ISO_A3_EH": "KEN", "ISO_N3": "404", "ISO_N3_EH": "404", "UN_A3": "404", "WB_A2": "KE", "WB_A3": "KEN", "WOE_ID": 23424863, "WOE_ID_EH": 23424863, "WOE_NOTE": "Exact WOE match as country", "ADM0_ISO": "KEN", "ADM0_DIFF": null, "ADM0_TLC": "KEN", "ADM0_A3_US": "KEN", "ADM0_A3_FR": "KEN", "ADM0_A3_RU": "KEN", "ADM0_A3_ES": "KEN", "ADM0_A3_CN": "KEN", "ADM0_A3_TW": "KEN", "ADM0_A3_IN": "KEN", "ADM0_A3_NP": "KEN", "ADM0_A3_PK": "KEN", "ADM0_A3_DE": "KEN", "ADM0_A3_GB": "KEN", "ADM0_A3_BR": "KEN", "ADM0_A3_IL": "KEN", "ADM0_A3_PS": "KEN", "ADM0_A3_SA": "KEN", "ADM0_A3_EG": "KEN", "ADM0_A3_MA": "KEN", "ADM0_A3_PT": "KEN", "ADM0_A3_AR": "KEN", "ADM0_A3_JP": "KEN", "ADM0_A3_KO": "KEN", "ADM0_A3_VN": "KEN", "ADM0_A3_TR": "KEN", "ADM0_A3_ID": "KEN", "ADM0_A3_PL": "KEN", "ADM0_A3_GR": "KEN", "ADM0_A3_IT": "KEN", "ADM0_A3_NL": "KEN", "ADM0_A3_SE": "KEN", "ADM0_A3_BD": "KEN", "ADM0_A3_UA": "KEN", "ADM0_A3_UN": -99, "ADM0_A3_WB": -99, "CONTINENT": "Africa", "REGION_UN": "Africa", "SUBREGION": "Eastern Africa", "REGION_WB": "Sub-Saharan Africa", "NAME_LEN": 5, "LONG_LEN": 5, "ABBREV_LEN": 4, "TINY": -99, "HOMEPART": 1, "MIN_ZOOM": 0, "MIN_LABEL": 1.7, "MAX_LABEL": 6.7, "LABEL_X": 37.907632, "LABEL_Y": 0.549043, "NE_ID": 1159320971, "WIKIDATAID": "Q114", "NAME_AR": "\u0643\u064a\u0646\u064a\u0627", "NAME_BN": "\u0995\u09c7\u09a8\u09bf\u09af\u09bc\u09be", "NAME_DE": "Kenia", "NAME_EN": "Kenya", "NAME_ES": "Kenia", "NAME_FA": "\u06a9\u0646\u06cc\u0627", "NAME_FR": "Kenya", "NAME_EL": "\u039a\u03ad\u03bd\u03c5\u03b1", "NAME_HE": "\u05e7\u05e0\u05d9\u05d4", "NAME_HI": "\u0915\u0940\u0928\u093f\u092f\u093e", "NAME_HU": "Kenya", "NAME_ID": "Kenya", "NAME_IT": "Kenya", "NAME_JA": "\u30b1\u30cb\u30a2", "NAME_KO": "\ucf00\ub0d0", "NAME_NL": "Kenia", "NAME_PL": "Kenia", "NAME_PT": "Qu\u00e9nia", "NAME_RU": "\u041a\u0435\u043d\u0438\u044f", "NAME_SV": "Kenya", "NAME_TR": "Kenya", "NAME_UK": "\u041a\u0435\u043d\u0456\u044f", "NAME_UR": "\u06a9\u06cc\u0646\u06cc\u0627", "NAME_VI": "Kenya", "NAME_ZH": "\u80af\u5c3c\u4e9a", "NAME_ZHT": "\u80af\u4e9e", "FCLASS_ISO": "Admin-0 country", "TLC_DIFF": null, "FCLASS_TLC": "Admin-0 country", "FCLASS_US": null, "FCLASS_FR": null, "FCLASS_RU": null, "FCLASS_ES": null, "FCLASS_CN": null, "FCLASS_TW": null, "FCLASS_IN": null, "FCLASS_NP": null, "FCLASS_PK": null, "FCLASS_DE": null, "FCLASS_GB": null, "FCLASS_BR": null, "FCLASS_IL": null, "FCLASS_PS": null, "FCLASS_SA": null, "FCLASS_EG": null, "FCLASS_MA": null, "FCLASS_PT": null, "FCLASS_AR": null, "FCLASS_JP": null, "FCLASS_KO": null, "FCLASS_VN": null, "FCLASS_TR": null, "FCLASS_ID": null, "FCLASS_PL": null, "FCLASS_GR": null, "FCLASS_IT": null, "FCLASS_NL": null, "FCLASS_SE": null, "FCLASS_BD": null, "FCLASS_UA": null}, "bbox": [33.893569, -4.67677, 41.855083, 5.506], "geometry": {"type": "Polygon", "coordinates": [[[39.20222, -4.67677], [37.7669, -3.67712], [37.69869, -3.09699], [34.07262, -1.05982], [33.903711, -0.95], [33.893569, 0.109814], [34.18, 0.515], [34.6721, 1.17694], [35.03599, 1.90584], [34.59607, 3.05374], [34.47913, 3.5556], [34.005, 4.249885], [34.620196, 4.847123], [35.298007, 5.506], [35.817448, 5.338232], [35.817448, 4.776966], [36.159079, 4.447864], [36.855093, 4.447864], [38.120915, 3.598605], [38.43697, 3.58851], [38.67114, 3.61607], [38.89251, 3.50074], [39.559384, 3.42206], [39.85494, 3.83879], [40.76848, 4.25702], [41.1718, 3.91909], [41.855083, 3.918912], [40.98105, 2.78452], [40.993, -0.85829], [41.58513, -1.68325], [40.88477, -2.08255], [40.63785, -2.49979], [40.26304, -2.57309], [40.12119, -3.27768], [39.80006, -3.68116], [39.60489, -4.34653], [39.20222, -4.67677]]]}}]}